NORAD_CAT_ID,OBJECT_NAME,OBJECT_TYPE,EPOCH,MEAN_MOTION,ECCENTRICITY,INCLINATION,RA_OF_ASC_NODE,ARG_OF_PERICENTER,MEAN_ANOMALY,BSTAR,MEAN_MOTION_DOT,MEAN_MOTION_DDOT,TLE_LINE0,TLE_LINE1,TLE_LINE2,SEMIMAJOR_AXIS,PERIOD,APOGEE,PERIGEE,DECAYED
53406.0,STARLINK-4533,PAYLOAD,2023-05-11 03:48:07,15.08852365,0.0001264,53.2179,73.8198,101.1636,258.9498,4.4398e-05,4.19e-06,0.0,0 STARLINK-4533,1 53406U 22097U   23131.15842370  .00000419  00000-0  44398-4 0  9994,2 53406  53.2179  73.8198 0001264 101.1636 258.9498 15.08852365 42626,6917.843,95.437,540.582,538.833,0.0
53406.0,STARLINK-4533,PAYLOAD,2023-05-12 02:03:33,15.088336,0.0001402,53.2175,69.6548,81.1941,278.921,1.0584e-05,-1.19e-06,0.0,0 STARLINK-4533,1 53406U 22097U   23132.08579975 -.00000119  00000-0  10584-4 0  9993,2 53406  53.2175  69.6548 0001402  81.1941 278.9210 15.08833600 42270,6917.9,95.438,540.735,538.795,0.0
53406.0,STARLINK-4533,PAYLOAD,2023-05-12 03:38:56,15.08833249,0.0001284,53.2178,69.3576,87.0904,273.0235,9.7584e-06,-1.33e-06,0.0,0 STARLINK-4533,1 53406U 22097U   23132.15204053 -.00000133  00000-0  97584-5 0  9995,2 53406  53.2178  69.3576 0001284  87.0904 273.0235 15.08833249 42770,6917.901,95.438,540.654,538.878,0.0
53406.0,STARLINK-4533,PAYLOAD,2023-05-13 03:29:41,15.08859982,0.0001331,53.2184,64.8962,92.6973,267.4172,0.00014523,2.025e-05,0.0,0 STARLINK-4533,1 53406U 22097U   23133.14561943  .00002025  00000-0  14523-3 0  9990,2 53406  53.2184  64.8962 0001331  92.6973 267.4172 15.08859982 42439,6917.819,95.436,540.605,538.764,0.0
53406.0,STARLINK-4533,PAYLOAD,2023-05-14 03:20:30,15.08839381,0.0001122,53.2184,60.439,84.2431,275.8689,4.4875e-05,4.26e-06,0.0,0 STARLINK-4533,1 53406U 22097U   23134.13923744  .00000426  00000-0  44875-4 0  9998,2 53406  53.2184  60.4390 0001122  84.2431 275.8689 15.08839381 42583,6917.882,95.438,540.523,538.971,0.0
53406.0,STARLINK-4533,PAYLOAD,2023-05-14 19:14:21,15.08845588,0.0001337,53.219,57.4626,100.7809,259.3333,-7.2486e-05,-1.442e-05,0.0,0 STARLINK-4533,1 53406U 22097U   23134.80163668 -.00001442  00000-0 -72486-4 0  9993,2 53406  53.2190  57.4626 0001337 100.7809 259.3333 15.08845588 43174,6917.863,95.437,540.653,538.803,0.0
53406.0,STARLINK-4533,PAYLOAD,2023-05-15 01:35:53,15.08856977,0.0001186,53.2191,56.2777,88.6487,271.4641,-8.1089e-05,-1.579e-05,0.0,0 STARLINK-4533,1 53406U 22097U   23135.06658914 -.00001579  00000-0 -81089-4 0  9995,2 53406  53.2191  56.2777 0001186  88.6487 271.4641 15.08856977 42728,6917.828,95.436,540.514,538.873,0.0
53406.0,STARLINK-4533,PAYLOAD,2023-05-15 23:51:18,15.08835296,0.000111,53.2189,52.1163,96.8339,263.278,8.6419e-05,1.088e-05,0.0,0 STARLINK-4533,1 53406U 22097U   23135.99395910  .00001088  00000-0  86419-4 0  9996,2 53406  53.2189  52.1163 0001110  96.8339 263.2780 15.08835296 42862,6917.895,95.438,540.528,538.992,0.0
53406.0,STARLINK-4533,PAYLOAD,2023-05-16 22:06:41,15.08838903,0.0001088,53.2191,47.9536,98.9539,261.1576,6.5358e-05,7.53e-06,0.0,0 STARLINK-4533,1 53406U 22097U   23136.92131930  .00000753  00000-0  65358-4 0  9997,2 53406  53.2191  47.9536 0001088  98.9539 261.1576 15.08838903 43498,6917.884,95.438,540.501,538.996,0.0
53406.0,STARLINK-4533,PAYLOAD,2023-05-17 01:17:28,15.08841322,0.0001107,53.2188,47.3586,96.4942,263.6176,5.5636e-05,5.98e-06,0.0,0 STARLINK-4533,1 53406U 22097U   23137.05379772  .00000598  00000-0  55636-4 0  9995,2 53406  53.2188  47.3586 0001107  96.4942 263.6176 15.08841322 43027,6917.876,95.437,540.507,538.976,0.0
53406.0,STARLINK-4533,PAYLOAD,2023-05-17 21:57:29,15.08836652,0.0001264,53.2194,43.4942,105.7328,254.3804,6.102e-05,6.83e-06,0.0,0 STARLINK-4533,1 53406U 22097U   23137.91492131  .00000683  00000-0  61020-4 0  9994,2 53406  53.2194  43.4942 0001264 105.7328 254.3804 15.08836652 43646,6917.891,95.438,540.63,538.881,0.0
53406.0,STARLINK-4533,PAYLOAD,2023-05-18 02:43:38,15.08838477,0.0001013,53.2178,42.5998,86.7215,273.3893,7.3317e-05,8.79e-06,0.0,0 STARLINK-4533,1 53406U 22097U   23138.11364017  .00000879  00000-0  73317-4 0  9997,2 53406  53.2178  42.5998 0001013  86.7215 273.3893 15.08838477 43189,6917.885,95.438,540.451,539.049,0.0
53406.0,STARLINK-4533,PAYLOAD,2023-05-18 17:02:06,15.08841852,0.0001045,53.2178,39.9226,83.3203,276.7908,3.4364e-05,2.59e-06,0.0,0 STARLINK-4533,1 53406U 22097U   23138.70979977  .00000259  00000-0  34364-4 0  9990,2 53406  53.2178  39.9226 0001045  83.3203 276.7908 15.08841852 43767,6917.875,95.437,540.463,539.017,0.0
53406.0,STARLINK-4533,PAYLOAD,2023-05-19 00:59:01,15.08846677,0.0001165,53.2183,38.4362,79.7404,280.3719,6.2287e-05,7.04e-06,0.0,0 STARLINK-4533,1 53406U 22097U   23139.04099534  .00000704  00000-0  62287-4 0  9990,2 53406  53.2183  38.4362 0001165  79.7404 280.3719 15.08846677 43326,6917.86,95.437,540.531,538.919,0.0
53406.0,STARLINK-4533,PAYLOAD,2023-05-19 16:52:53,15.0884138,0.0001305,53.2186,35.4639,73.7629,286.3506,5.3998e-05,5.72e-06,0.0,0 STARLINK-4533,1 53406U 22097U   23139.70339917  .00000572  00000-0  53998-4 0  9997,2 53406  53.2186  35.4639 0001305  73.7629 286.3506 15.08841380 43429,6917.876,95.437,540.644,538.838,0.0
53406.0,STARLINK-4533,PAYLOAD,2023-05-19 21:39:03,15.08841962,0.0001223,53.2184,34.5708,75.1126,285.0001,5.5157e-05,5.9e-06,0.0,0 STARLINK-4533,1 53406U 22097U   23139.90211834  .00000590  00000-0  55157-4 0  9995,2 53406  53.2184  34.5708 0001223  75.1126 285.0001 15.08841962 43940,6917.874,95.437,540.585,538.893,0.0
53406.0,STARLINK-4533,PAYLOAD,2023-05-20 19:54:26,15.08851172,0.0001292,53.2181,30.4073,90.2404,269.8736,6.6989e-05,7.79e-06,0.0,0 STARLINK-4533,1 53406U 22097U   23140.82946961  .00000779  00000-0  66989-4 0  9998,2 53406  53.2181  30.4073 0001292  90.2404 269.8736 15.08851172 44085,6917.846,95.437,540.605,538.817,0.0
53406.0,STARLINK-4533,PAYLOAD,2023-05-20 23:05:12,15.08854145,0.0001279,53.2182,29.8125,91.5213,268.5926,9.7899e-05,1.271e-05,0.0,0 STARLINK-4533,1 53406U 22097U   23140.96194607  .00001271  00000-0  97899-4 0  9997,2 53406  53.2182  29.8125 0001279  91.5213 268.5926 15.08854145 43611,6917.837,95.437,540.587,538.817,0.0
53406.0,STARLINK-4533,PAYLOAD,2023-05-21 22:56:01,15.08829848,0.0001128,53.2181,25.3521,102.6532,257.4587,-5.7462e-05,-1.202e-05,0.0,0 STARLINK-4533,1 53406U 22097U   23141.95556914 -.00001202  00000-0 -57462-4 0  9998,2 53406  53.2181  25.3521 0001128 102.6532 257.4587 15.08829848 44255,6917.911,95.438,540.557,538.996,0.0
53406.0,STARLINK-4533,PAYLOAD,2023-05-22 02:06:47,15.08827418,0.0001018,53.2184,24.7575,102.1146,257.996,-7.6451e-05,-1.504e-05,0.0,0 STARLINK-4533,1 53406U 22097U   23142.08805199 -.00001504  00000-0 -76451-4 0  9999,2 53406  53.2184  24.7575 0001018 102.1146 257.9960 15.08827418 43782,6917.919,95.438,540.488,539.08,0.0
53406.0,STARLINK-4533,PAYLOAD,2023-05-22 19:36:02,15.0883621,0.000102,53.2189,21.4859,103.112,256.9986,-5.6692e-05,-1.19e-05,0.0,0 STARLINK-4533,1 53406U 22097U   23142.81669107 -.00001190  00000-0 -56692-4 0  9993,2 53406  53.2189  21.4859 0001020 103.1120 256.9986 15.08836210 44386,6917.892,95.438,540.463,539.051,0.0
53406.0,STARLINK-4533,PAYLOAD,2023-05-23 19:26:48,15.08833627,9.29e-05,53.2181,17.0275,109.243,250.8663,0.00019165,2.763e-05,0.0,0 STARLINK-4533,1 53406U 22097U   23143.81028810  .00002763  00000-0  19165-3 0  9992,2 53406  53.2181  17.0275 0000929 109.2430 250.8663 15.08833627 44530,6917.9,95.438,540.408,539.122,0.0
53406.0,STARLINK-4533,PAYLOAD,2023-05-23 22:37:35,15.0883674,9.47e-05,53.2184,16.4324,109.5877,250.5218,0.00023674,3.482e-05,0.0,0 STARLINK-4533,1 53406U 22097U   23143.94276775  .00003482  00000-0  23674-3 0  9990,2 53406  53.2184  16.4324 0000947 109.5877 250.5218 15.08836740 44069,6917.89,95.438,540.41,539.1,0.0
53406.0,STARLINK-4533,PAYLOAD,2023-05-25 22:19:09,15.0884463,0.0001026,53.2181,7.5105,103.9328,256.1778,0.00013061,1.792e-05,0.0,0 STARLINK-4533,1 53406U 22097U   23145.92996542  .00001792  00000-0  13061-3 0  9992,2 53406  53.2181   7.5105 0001026 103.9328 256.1778 15.08844630 44859,6917.866,95.437,540.441,539.021,0.0
53406.0,STARLINK-4533,PAYLOAD,2023-05-26 18:59:10,15.08837628,0.0001096,53.2183,3.6443,77.8004,282.3111,7.1279e-06,-1.74e-06,0.0,0 STARLINK-4533,1 53406U 22097U   23146.79109494 -.00000174  00000-0  71279-5 0  9991,2 53406  53.2183   3.6443 0001096  77.8004 282.3111 15.08837628 44491,6917.888,95.438,540.511,538.994,0.0
53406.0,STARLINK-4533,PAYLOAD,2023-05-26 22:09:56,15.08836527,0.0001151,53.2189,3.0512,74.7383,285.3736,1.2475e-05,-8.9e-07,0.0,0 STARLINK-4533,1 53406U 22097U   23146.92357570 -.00000089  00000-0  12475-4 0  9993,2 53406  53.2189   3.0512 0001151  74.7383 285.3736 15.08836527 45007,6917.891,95.438,540.552,538.96,0.0
53406.0,STARLINK-4533,PAYLOAD,2023-05-27 20:25:19,15.08849345,0.0001026,53.2189,358.8871,82.6213,277.4896,4.2686e-05,3.92e-06,0.0,0 STARLINK-4533,1 53406U 22097U   23147.85092554  .00000392  00000-0  42686-4 0  9997,2 53406  53.2189 358.8871 0001026  82.6213 277.4896 15.08849345 44658,6917.852,95.437,540.427,539.007,0.0
53406.0,STARLINK-4533,PAYLOAD,2023-05-28 20:16:07,15.08845572,0.0001029,53.2182,354.4284,77.8559,282.2549,0.00010684,1.413e-05,0.0,0 STARLINK-4533,1 53406U 22097U   23148.84452607  .00001413  00000-0  10684-3 0  9993,2 53406  53.2182 354.4284 0001029  77.8559 282.2549 15.08845572 44807,6917.863,95.437,540.44,539.017,0.0
53406.0,STARLINK-4533,PAYLOAD,2023-05-29 13:45:21,15.0883919,0.0001188,53.2187,351.1545,90.35,269.7628,2.351e-05,8.6e-07,0.0,0 STARLINK-4533,1 53406U 22097U   23149.57317075  .00000086  00000-0  23510-4 0  9991,2 53406  53.2187 351.1545 0001188  90.3500 269.7628 15.08839190 45402,6917.883,95.438,540.57,538.926,0.0
53406.0,STARLINK-4533,PAYLOAD,2023-05-29 16:56:08,15.08839237,0.0001153,53.2184,350.5599,89.0752,271.0372,2.1506e-05,5.4e-07,0.0,0 STARLINK-4533,1 53406U 22097U   23149.70565060  .00000054  00000-0  21506-4 0  9993,2 53406  53.2184 350.5599 0001153  89.0752 271.0372 15.08839237 44938,6917.883,95.438,540.545,538.95,0.0
